start=new Date('2023-04-08T00:00:00.000Z').valueOf();
sats=[{"APOAPSIS":"361.351","MEAN_MOTION_DDOT":"0.0000000000000","MEAN_MOTION_DOT":"-0.00050249","FILE":"3882626","EPOCH":"2023-04-07T14:00:01.000224","NORAD_CAT_ID":"55918","PERIAPSIS":"356.656","INCLINATION":"69.9992","MEAN_ANOMALY":"214.7340","GP_ID":"229687729","CENTER_NAME":"EARTH","RCS_SIZE":"MEDIUM","DECAY_DATE":null,"ECCENTRICITY":"0.00034850","SITE":"AFWTR","OBJECT_ID":"2023-037E","SEMIMAJOR_AXIS":"6737.138","LAUNCH_DATE":"2023-03-17","COUNTRY_CODE":"US","RA_OF_ASC_NODE":"122.5608","CLASSIFICATION_TYPE":"U","MEAN_ELEMENT_THEORY":"SGP4","OBJECT_NAME":"STARLINK-5867","BSTAR":"-0.00041793000000","ARG_OF_PERICENTER":"273.3688","TLE_LINE2":"2 55918  69.9992 122.5608 0003485 273.3688 214.7340 15.69963489  1300","TIME_SYSTEM":"UTC","OBJECT_TYPE":"PAYLOAD","REF_FRAME":"TEME","MEAN_MOTION":"15.69963489","PERIOD":"91.722","TLE_LINE1":"1 55918U 23037E   23097.58334491 -.00050249  00000-0 -41793-3 0  9990","EPHEMERIS_TYPE":"0","ELEMENT_SET_NO":"999","REV_AT_EPOCH":"130"},{"PERIAPSIS":"356.539","MEAN_ANOMALY":"220.2825","INCLINATION":"69.9993","CENTER_NAME":"EARTH","GP_ID":"229687689","FILE":"3882626","MEAN_MOTION_DOT":"-0.00048961","MEAN_MOTION_DDOT":"0.0000000000000","APOAPSIS":"361.509","NORAD_CAT_ID":"55919","EPOCH":"2023-04-07T14:00:01.000224","CLASSIFICATION_TYPE":"U","RA_OF_ASC_NODE":"122.5578","OBJECT_NAME":"STARLINK-5871","MEAN_ELEMENT_THEORY":"SGP4","DECAY_DATE":null,"SITE":"AFWTR","ECCENTRICITY":"0.00036890","RCS_SIZE":"LARGE","COUNTRY_CODE":"US","LAUNCH_DATE":"2023-03-17","SEMIMAJOR_AXIS":"6737.159","OBJECT_ID":"2023-037F","TLE_LINE2":"2 55919  69.9993 122.5578 0003689 269.6185 220.2825 15.69956314  1303","ARG_OF_PERICENTER":"269.6185","BSTAR":"-0.00040721000000","PERIOD":"91.722","REF_FRAME":"TEME","MEAN_MOTION":"15.69956314","REV_AT_EPOCH":"130","TLE_LINE1":"1 55919U 23037F   23097.58334491 -.00048961  00000-0 -40721-3 0  9999","EPHEMERIS_TYPE":"0","ELEMENT_SET_NO":"999","TIME_SYSTEM":"UTC","OBJECT_TYPE":"PAYLOAD"},{"GP_ID":"229687694","CENTER_NAME":"EARTH","PERIAPSIS":"356.735","INCLINATION":"69.9992","MEAN_ANOMALY":"225.0970","EPOCH":"2023-04-07T14:00:01.000224","NORAD_CAT_ID":"55920","APOAPSIS":"361.300","MEAN_MOTION_DDOT":"0.0000000000000","MEAN_MOTION_DOT":"-0.00056245","FILE":"3882626","MEAN_ELEMENT_THEORY":"SGP4","OBJECT_NAME":"STARLINK-5862","RA_OF_ASC_NODE":"122.5517","CLASSIFICATION_TYPE":"U","OBJECT_ID":"2023-037G","SEMIMAJOR_AXIS":"6737.152","LAUNCH_DATE":"2023-03-17","COUNTRY_CODE":"US","RCS_SIZE":"LARGE","DECAY_DATE":null,"SITE":"AFWTR","ECCENTRICITY":"0.00033880","BSTAR":"-0.00046845000000","ARG_OF_PERICENTER":"270.1667","TLE_LINE2":"2 55920  69.9992 122.5517 0003388 270.1667 225.0970 15.69958650  1304","TLE_LINE1":"1 55920U 23037G   23097.58334491 -.00056245  00000-0 -46845-3 0  9998","ELEMENT_SET_NO":"999","EPHEMERIS_TYPE":"0","REV_AT_EPOCH":"130","REF_FRAME":"TEME","MEAN_MOTION":"15.69958650","PERIOD":"91.722","OBJECT_TYPE":"PAYLOAD","TIME_SYSTEM":"UTC"},{"BSTAR":"-0.00069856000000","TLE_LINE2":"2 55921  69.9989 122.5572 0003353 273.6236 218.0571 15.69983496  1309","ARG_OF_PERICENTER":"273.6236","REV_AT_EPOCH":"130","TLE_LINE1":"1 55921U 23037H   23097.58334491 -.00083584  00000-0 -69856-3 0  9992","ELEMENT_SET_NO":"999","EPHEMERIS_TYPE":"0","PERIOD":"91.721","MEAN_MOTION":"15.69983496","REF_FRAME":"TEME","OBJECT_TYPE":"PAYLOAD","TIME_SYSTEM":"UTC","GP_ID":"229687764","CENTER_NAME":"EARTH","PERIAPSIS":"356.687","INCLINATION":"69.9989","MEAN_ANOMALY":"218.0571","EPOCH":"2023-04-07T14:00:01.000224","NORAD_CAT_ID":"55921","MEAN_MOTION_DDOT":"0.0000000000000","APOAPSIS":"361.205","FILE":"3882626","MEAN_MOTION_DOT":"-0.00083584","MEAN_ELEMENT_THEORY":"SGP4","OBJECT_NAME":"STARLINK-5861","CLASSIFICATION_TYPE":"U","RA_OF_ASC_NODE":"122.5572","SEMIMAJOR_AXIS":"6737.081","OBJECT_ID":"2023-037H","COUNTRY_CODE":"US","LAUNCH_DATE":"2023-03-17","RCS_SIZE":"LARGE","DECAY_DATE":null,"ECCENTRICITY":"0.00033530","SITE":"AFWTR"},{"MEAN_MOTION":"15.69961326","REF_FRAME":"TEME","PERIOD":"91.722","ELEMENT_SET_NO":"999","TLE_LINE1":"1 55922U 23037J   23097.58334491 -.00047764  00000-0 -39710-3 0  9999","EPHEMERIS_TYPE":"0","REV_AT_EPOCH":"130","TIME_SYSTEM":"UTC","OBJECT_TYPE":"PAYLOAD","ARG_OF_PERICENTER":"274.9938","TLE_LINE2":"2 55922  69.9993 122.5564 0003381 274.9938 216.0879 15.69961326  1307","BSTAR":"-0.00039710000000","RA_OF_ASC_NODE":"122.5564","CLASSIFICATION_TYPE":"U","OBJECT_NAME":"STARLINK-5863","MEAN_ELEMENT_THEORY":"SGP4","ECCENTRICITY":"0.00033810","DECAY_DATE":null,"SITE":"AFWTR","RCS_SIZE":"LARGE","LAUNCH_DATE":"2023-03-17","COUNTRY_CODE":"US","OBJECT_ID":"2023-037J","SEMIMAJOR_AXIS":"6737.145","INCLINATION":"69.9993","PERIAPSIS":"356.732","MEAN_ANOMALY":"216.0879","GP_ID":"229687868","CENTER_NAME":"EARTH","MEAN_MOTION_DOT":"-0.00047764","FILE":"3882626","APOAPSIS":"361.287","MEAN_MOTION_DDOT":"0.0000000000000","NORAD_CAT_ID":"55922","EPOCH":"2023-04-07T14:00:01.000224"},{"REF_FRAME":"TEME","MEAN_MOTION":"15.69971412","PERIOD":"91.721","EPHEMERIS_TYPE":"0","TLE_LINE1":"1 55923U 23037K   23097.58334491 -.00067383  00000-0 -56199-3 0  9999","ELEMENT_SET_NO":"999","REV_AT_EPOCH":"130","TIME_SYSTEM":"UTC","OBJECT_TYPE":"PAYLOAD","ARG_OF_PERICENTER":"271.8318","TLE_LINE2":"2 55923  69.9990 122.5584 0003550 271.8318 218.6567 15.69971412  1302","BSTAR":"-0.00056199000000","RA_OF_ASC_NODE":"122.5584","CLASSIFICATION_TYPE":"U","OBJECT_NAME":"STARLINK-5854","MEAN_ELEMENT_THEORY":"SGP4","ECCENTRICITY":"0.00035500","DECAY_DATE":null,"SITE":"AFWTR","RCS_SIZE":"LARGE","LAUNCH_DATE":"2023-03-17","COUNTRY_CODE":"US","OBJECT_ID":"2023-037K","SEMIMAJOR_AXIS":"6737.116","PERIAPSIS":"356.589","MEAN_ANOMALY":"218.6567","INCLINATION":"69.9990","CENTER_NAME":"EARTH","GP_ID":"229687829","MEAN_MOTION_DOT":"-0.00067383","FILE":"3882626","APOAPSIS":"361.372","MEAN_MOTION_DDOT":"0.0000000000000","NORAD_CAT_ID":"55923","EPOCH":"2023-04-07T14:00:01.000224"},{"CENTER_NAME":"EARTH","GP_ID":"229687834","MEAN_ANOMALY":"225.5982","PERIAPSIS":"356.760","INCLINATION":"69.9993","NORAD_CAT_ID":"55924","EPOCH":"2023-04-07T14:00:01.000224","MEAN_MOTION_DOT":"-0.00075291","FILE":"3882626","APOAPSIS":"361.169","MEAN_MOTION_DDOT":"0.0000000000000","OBJECT_NAME":"STARLINK-5849","MEAN_ELEMENT_THEORY":"SGP4","RA_OF_ASC_NODE":"122.5483","CLASSIFICATION_TYPE":"U","LAUNCH_DATE":"2023-03-17","COUNTRY_CODE":"US","OBJECT_ID":"2023-037L","SEMIMAJOR_AXIS":"6737.099","DECAY_DATE":null,"ECCENTRICITY":"0.00032720","SITE":"AFWTR","RCS_SIZE":"LARGE","ARG_OF_PERICENTER":"272.0330","TLE_LINE2":"2 55924  69.9993 122.5483 0003272 272.0330 225.5982 15.69977222  1305","BSTAR":"-0.00062863000000","EPHEMERIS_TYPE":"0","TLE_LINE1":"1 55924U 23037L   23097.58334491 -.00075291  00000-0 -62863-3 0  9992","ELEMENT_SET_NO":"999","REV_AT_EPOCH":"130","REF_FRAME":"TEME","MEAN_MOTION":"15.69977222","PERIOD":"91.721","OBJECT_TYPE":"PAYLOAD","TIME_SYSTEM":"UTC"},{"BSTAR":"-0.00051795000000","TLE_LINE2":"2 55925  69.9990 122.5558 0003410 277.3610 214.9135 15.69968310  1309","ARG_OF_PERICENTER":"277.3610","OBJECT_TYPE":"PAYLOAD","TIME_SYSTEM":"UTC","REV_AT_EPOCH":"130","ELEMENT_SET_NO":"999","TLE_LINE1":"1 55925U 23037M   23097.58334491 -.00062148  00000-0 -51795-3 0  9992","EPHEMERIS_TYPE":"0","PERIOD":"91.722","MEAN_MOTION":"15.69968310","REF_FRAME":"TEME","EPOCH":"2023-04-07T14:00:01.000224","NORAD_CAT_ID":"55925","MEAN_MOTION_DDOT":"0.0000000000000","APOAPSIS":"361.287","FILE":"3882626","MEAN_MOTION_DOT":"-0.00062148","CENTER_NAME":"EARTH","GP_ID":"229687903","PERIAPSIS":"356.692","INCLINATION":"69.9990","MEAN_ANOMALY":"214.9135","SEMIMAJOR_AXIS":"6737.125","OBJECT_ID":"2023-037M","COUNTRY_CODE":"US","LAUNCH_DATE":"2023-03-17","RCS_SIZE":"LARGE","ECCENTRICITY":"0.00034100","DECAY_DATE":null,"SITE":"AFWTR","MEAN_ELEMENT_THEORY":"SGP4","OBJECT_NAME":"STARLINK-5922","CLASSIFICATION_TYPE":"U","RA_OF_ASC_NODE":"122.5558"},{"TIME_SYSTEM":"UTC","OBJECT_TYPE":"PAYLOAD","MEAN_MOTION":"15.69974033","REF_FRAME":"TEME","PERIOD":"91.721","TLE_LINE1":"1 55926U 23037N   23097.58334491 -.00075322  00000-0 -62897-3 0  9996","EPHEMERIS_TYPE":"0","ELEMENT_SET_NO":"999","REV_AT_EPOCH":"130","BSTAR":"-0.00062897000000","ARG_OF_PERICENTER":"275.0763","TLE_LINE2":"2 55926  69.9992 122.5496 0003304 275.0763 221.9653 15.69974033  1301","RCS_SIZE":"LARGE","SITE":"AFWTR","DECAY_DATE":null,"ECCENTRICITY":"0.00033040","OBJECT_ID":"2023-037N","SEMIMAJOR_AXIS":"6737.108","LAUNCH_DATE":"2023-03-17","COUNTRY_CODE":"US","RA_OF_ASC_NODE":"122.5496","CLASSIFICATION_TYPE":"U","MEAN_ELEMENT_THEORY":"SGP4","OBJECT_NAME":"STARLINK-5921","APOAPSIS":"361.199","MEAN_MOTION_DDOT":"0.0000000000000","MEAN_MOTION_DOT":"-0.00075322","FILE":"3882626","EPOCH":"2023-04-07T14:00:01.000224","NORAD_CAT_ID":"55926","INCLINATION":"69.9992","PERIAPSIS":"356.747","MEAN_ANOMALY":"221.9653","CENTER_NAME":"EARTH","GP_ID":"229687730"},{"TIME_SYSTEM":"UTC","OBJECT_TYPE":"PAYLOAD","REF_FRAME":"TEME","MEAN_MOTION":"15.69965983","PERIOD":"91.722","EPHEMERIS_TYPE":"0","TLE_LINE1":"1 55927U 23037P   23097.58334491 -.00058882  00000-0 -49051-3 0  9996","ELEMENT_SET_NO":"999","REV_AT_EPOCH":"130","BSTAR":"-0.00049051000000","ARG_OF_PERICENTER":"274.0071","TLE_LINE2":"2 55927  69.9991 122.5547 0003335 274.0071 218.8644 15.69965983  1302","RCS_SIZE":"LARGE","ECCENTRICITY":"0.00033350","DECAY_DATE":null,"SITE":"AFWTR","OBJECT_ID":"2023-037P","SEMIMAJOR_AXIS":"6737.131","LAUNCH_DATE":"2023-03-17","COUNTRY_CODE":"US","RA_OF_ASC_NODE":"122.5547","CLASSIFICATION_TYPE":"U","MEAN_ELEMENT_THEORY":"SGP4","OBJECT_NAME":"STARLINK-5919","APOAPSIS":"361.243","MEAN_MOTION_DDOT":"0.0000000000000","MEAN_MOTION_DOT":"-0.00058882","FILE":"3882626","EPOCH":"2023-04-07T14:00:01.000224","NORAD_CAT_ID":"55927","INCLINATION":"69.9991","PERIAPSIS":"356.749","MEAN_ANOMALY":"218.8644","CENTER_NAME":"EARTH","GP_ID":"229687795"}];
